     2.11           N: GNSS NAV DATA    R: GLONASS          RINEX VERSION / TYPE
GNSS-SDR            gaudima             14-JAN-19 15:26     PGM / RUN BY / DATE 
GLONASS NAVIGATION MESSAGE FILE GENERATED BY GNSS-SDR       COMMENT             
GNSS-SDR VERSION 0.0.10                                     COMMENT             
See https://gnss-sdr.org                                    COMMENT             
  2016    08    30   -.1522712409496D-06                    CORR TO SYSTEM TIME 
                                                            END OF HEADER       
 2 16  8 30 18 44 59.0  .152271240950D-06  .181898940355D-11  .780000000000D+05 
     .136369565430D+05 -.720835685730D+00 -.279396772385D-08  .000000000000D+00 
    -.187353935547D+05  .128322410583D+01 -.186264514923D-08 -.400000000000D+01 
     .107497192383D+05  .315876102448D+01  .000000000000D+00  .000000000000D+00 
15 16  8 30 18 44 59.0  .144820660353D-06  .000000000000D+00  .780000000000D+05 
    -.147092333984D+05 -.124045372009D+00 -.186264514923D-08  .000000000000D+00 
    -.208826816406D+05  .228140830994D+00 -.465661287308D-08  .000000000000D+00 
    -.805967285156D+03 -.359157752991D+01  .186264514923D-08  .000000000000D+00 
16 16  8 30 18 44 59.0  .144820660353D-06  .909494701773D-12  .780000000000D+05 
    -.167960952148D+05 -.146990108490D+01  .000000000000D+00  .000000000000D+00 
    -.943419677734D+04 -.176689338684D+01 -.465661287308D-08 -.100000000000D+01 
     .167562924805D+05 -.245664024353D+01  .000000000000D+00  .000000000000D+00 
17 16  8 30 18 45  0.0  .152271240950D-06  .000000000000D+00  .780000000000D+05 
     .495231494141D+04  .305158519745D+01 -.186264514923D-08  .000000000000D+00 
    -.110880991211D+05 -.357747077942D+00 -.186264514923D-08  .400000000000D+01 
     .224269995117D+05 -.854127883911D+00 -.186264514923D-08  .000000000000D+00 
 2 16  8 30 18 44 59.0  .152271240950D-06  .181898940355D-11  .780000000000D+05 
     .136369565430D+05 -.720835685730D+00 -.279396772385D-08  .000000000000D+00 
    -.187353935547D+05  .128322410583D+01 -.186264514923D-08 -.400000000000D+01 
     .107497192383D+05  .315876102448D+01  .000000000000D+00  .000000000000D+00 
15 16  8 30 18 44 59.0  .144820660353D-06  .000000000000D+00  .780000000000D+05 
    -.147092333984D+05 -.124045372009D+00 -.186264514923D-08  .000000000000D+00 
    -.208826816406D+05  .228140830994D+00 -.465661287308D-08  .000000000000D+00 
    -.805967285156D+03 -.359157752991D+01  .186264514923D-08  .000000000000D+00 
16 16  8 30 18 44 59.0  .144820660353D-06  .909494701773D-12  .780000000000D+05 
    -.167960952148D+05 -.146990108490D+01  .000000000000D+00  .000000000000D+00 
    -.943419677734D+04 -.176689338684D+01 -.465661287308D-08 -.100000000000D+01 
     .167562924805D+05 -.245664024353D+01  .000000000000D+00  .000000000000D+00 
17 16  8 30 18 45  0.0  .152271240950D-06  .000000000000D+00  .780000000000D+05 
     .495231494141D+04  .305158519745D+01 -.186264514923D-08  .000000000000D+00 
    -.110880991211D+05 -.357747077942D+00 -.186264514923D-08  .400000000000D+01 
     .224269995117D+05 -.854127883911D+00 -.186264514923D-08  .000000000000D+00 
 2 16  8 30 18 44 59.0  .152271240950D-06  .181898940355D-11  .780000000000D+05 
     .136369565430D+05 -.720835685730D+00 -.279396772385D-08  .000000000000D+00 
    -.187353935547D+05  .128322410583D+01 -.186264514923D-08 -.400000000000D+01 
     .107497192383D+05  .315876102448D+01  .000000000000D+00  .000000000000D+00 
15 16  8 30 18 44 59.0  .144820660353D-06  .000000000000D+00  .780000000000D+05 
    -.147092333984D+05 -.124045372009D+00 -.186264514923D-08  .000000000000D+00 
    -.208826816406D+05  .228140830994D+00 -.465661287308D-08  .000000000000D+00 
    -.805967285156D+03 -.359157752991D+01  .186264514923D-08  .000000000000D+00 
16 16  8 30 18 44 59.0  .144820660353D-06  .909494701773D-12  .780000000000D+05 
    -.167960952148D+05 -.146990108490D+01  .000000000000D+00  .000000000000D+00 
    -.943419677734D+04 -.176689338684D+01 -.465661287308D-08 -.100000000000D+01 
     .167562924805D+05 -.245664024353D+01  .000000000000D+00  .000000000000D+00 
17 16  8 30 18 45  0.0  .152271240950D-06  .000000000000D+00  .780000000000D+05 
     .495231494141D+04  .305158519745D+01 -.186264514923D-08  .000000000000D+00 
    -.110880991211D+05 -.357747077942D+00 -.186264514923D-08  .400000000000D+01 
     .224269995117D+05 -.854127883911D+00 -.186264514923D-08  .000000000000D+00 
 2 16  8 30 18 44 59.0  .152271240950D-06  .181898940355D-11  .780000000000D+05 
     .136369565430D+05 -.720835685730D+00 -.279396772385D-08  .000000000000D+00 
    -.187353935547D+05  .128322410583D+01 -.186264514923D-08 -.400000000000D+01 
     .107497192383D+05  .315876102448D+01  .000000000000D+00  .000000000000D+00 
15 16  8 30 18 44 59.0  .144820660353D-06  .000000000000D+00  .780000000000D+05 
    -.147092333984D+05 -.124045372009D+00 -.186264514923D-08  .000000000000D+00 
    -.208826816406D+05  .228140830994D+00 -.465661287308D-08  .000000000000D+00 
    -.805967285156D+03 -.359157752991D+01  .186264514923D-08  .000000000000D+00 
16 16  8 30 18 44 59.0  .144820660353D-06  .909494701773D-12  .780000000000D+05 
    -.167960952148D+05 -.146990108490D+01  .000000000000D+00  .000000000000D+00 
    -.943419677734D+04 -.176689338684D+01 -.465661287308D-08 -.100000000000D+01 
     .167562924805D+05 -.245664024353D+01  .000000000000D+00  .000000000000D+00 
17 16  8 30 18 45  0.0  .152271240950D-06  .000000000000D+00  .780000000000D+05 
     .495231494141D+04  .305158519745D+01 -.186264514923D-08  .000000000000D+00 
    -.110880991211D+05 -.357747077942D+00 -.186264514923D-08  .400000000000D+01 
     .224269995117D+05 -.854127883911D+00 -.186264514923D-08  .000000000000D+00 
